[Satellite]
VERSION=1.1
NAME=SIRIUS FM-6
NICKNAME=SIRIUS FM-6
TLE1=1 39360U 13058A   17185.53727621 -.00000022  00000-0  00000-0 0  9998
TLE2=2 39360   0.0095 356.1974 0000296 214.2357 149.5570  1.00271453 13382
